{
  "type": "FeatureCollection",
  "features": [
    {
      "type": "Feature",
      "properties": {
        "norad_id": 31411,
        "name": "FENGYUN 1C DEB",
        "group": "fengyun-1c-debris",
        "lat": 56.57400477028384,
        "lon": -124.908508985609,
        "alt_km": 856.1850766246826,
        "timestamp": "2025-12-06T09:34:17.195890+00:00",
        "meta_object_name": "FENGYUN 1C DEB",
        "meta_object_id": "1999-025BSX",
        "meta_epoch": "2025-12-05T23:29:33.204192",
        "meta_mean_motion": 14.27961617,
        "meta_eccentricity": 0.01005727,
        "meta_inclination": 98.6701,
        "meta_ra_of_asc_node": 41.3081,
        "meta_arg_of_pericenter": 274.7751,
        "meta_mean_anomaly": 210.5201,
        "meta_ephemeris_type": 0,
        "meta_classification_type": "U",
        "meta_norad_cat_id": 31411,
        "meta_element_set_no": 999,
        "meta_rev_at_epoch": 94383,
        "meta_bstar": 0.00082880016,
        "meta_mean_motion_dot": 2.124e-05,
        "meta_mean_motion_ddot": 0,
        "tle_line1": "1 31411U 99025BSX 25339.97885653  .00002124  00000+0  82880-3 0  9995",
        "tle_line2": "2 31411  98.6701  41.3081 0100572 274.7751 210.5201 14.27961617943830"
      },
      "geometry": {
        "type": "Point",
        "coordinates": [
          -124.908508985609,
          56.57400477028384
        ]
      }
    },
    {
      "type": "Feature",
      "properties": {
        "norad_id": 31412,
        "name": "FENGYUN 1C DEB",
        "group": "fengyun-1c-debris",
        "lat": 21.66211545873101,
        "lon": 108.03877761270181,
        "alt_km": 918.5869152113764,
        "timestamp": "2025-12-06T09:34:17.195900+00:00",
        "meta_object_name": "FENGYUN 1C DEB",
        "meta_object_id": "1999-025BSY",
        "meta_epoch": "2025-12-05T07:16:29.361504",
        "meta_mean_motion": 14.09755209,
        "meta_eccentricity": 0.00839467,
        "meta_inclination": 98.5508,
        "meta_ra_of_asc_node": 283.5718,
        "meta_arg_of_pericenter": 355.9711,
        "meta_mean_anomaly": 4.0775,
        "meta_ephemeris_type": 0,
        "meta_classification_type": "U",
        "meta_norad_cat_id": 31412,
        "meta_element_set_no": 999,
        "meta_rev_at_epoch": 60887,
        "meta_bstar": 0.0036746872,
        "meta_mean_motion_dot": 6.631e-05,
        "meta_mean_motion_ddot": 0,
        "tle_line1": "1 31412U 99025BSY 25339.30311761  .00006631  00000+0  36747-2 0  9994",
        "tle_line2": "2 31412  98.5508 283.5718 0083946 355.9711   4.0775 14.09755209608877"
      },
      "geometry": {
        "type": "Point",
        "coordinates": [
          108.03877761270181,
          21.66211545873101
        ]
      }
    },
    {
      "type": "Feature",
      "properties": {
        "norad_id": 31415,
        "name": "FENGYUN 1C DEB",
        "group": "fengyun-1c-debris",
        "lat": -74.45788867868256,
        "lon": 74.10515402674005,
        "alt_km": 841.4725572868638,
        "timestamp": "2025-12-06T09:34:17.195910+00:00",
        "meta_object_name": "FENGYUN 1C DEB",
        "meta_object_id": "1999-025BTB",
        "meta_epoch": "2025-11-30T02:58:22.044864",
        "meta_mean_motion": 14.30472505,
        "meta_eccentricity": 0.00637436,
        "meta_inclination": 99.637,
        "meta_ra_of_asc_node": 284.8171,
        "meta_arg_of_pericenter": 110.0761,
        "meta_mean_anomaly": 250.7294,
        "meta_ephemeris_type": 0,
        "meta_classification_type": "U",
        "meta_norad_cat_id": 31415,
        "meta_element_set_no": 999,
        "meta_rev_at_epoch": 62650,
        "meta_bstar": 0.0013587885,
        "meta_mean_motion_dot": 3.567e-05,
        "meta_mean_motion_ddot": 0,
        "tle_line1": "1 31415U 99025BTB 25334.12386626  .00003567  00000+0  13588-2 0  9997",
        "tle_line2": "2 31415  99.6370 284.8171 0063743 110.0761 250.7294 14.30472505626509"
      },
      "geometry": {
        "type": "Point",
        "coordinates": [
          74.10515402674005,
          -74.45788867868256
        ]
      }
    },
    {
      "type": "Feature",
      "properties": {
        "norad_id": 31416,
        "name": "FENGYUN 1C DEB",
        "group": "fengyun-1c-debris",
        "lat": 67.74519526215575,
        "lon": 7.332150877969875,
        "alt_km": 838.4628133895358,
        "timestamp": "2025-12-06T09:34:17.195920+00:00",
        "meta_object_name": "FENGYUN 1C DEB",
        "meta_object_id": "1999-025BTC",
        "meta_epoch": "2025-12-05T09:54:32.249664",
        "meta_mean_motion": 14.40647561,
        "meta_eccentricity": 0.01327359,
        "meta_inclination": 99.0524,
        "meta_ra_of_asc_node": 29.2185,
        "meta_arg_of_pericenter": 272.7124,
        "meta_mean_anomaly": 85.8876,
        "meta_ephemeris_type": 0,
        "meta_classification_type": "U",
        "meta_norad_cat_id": 31416,
        "meta_element_set_no": 999,
        "meta_rev_at_epoch": 65414,
        "meta_bstar": 0.00050649194,
        "meta_mean_motion_dot": 1.739e-05,
        "meta_mean_motion_ddot": 0,
        "tle_line1": "1 31416U 99025BTC 25339.41287326  .00001739  00000+0  50649-3 0  9991",
        "tle_line2": "2 31416  99.0524  29.2185 0132735 272.7124  85.8876 14.40647561654149"
      },
      "geometry": {
        "type": "Point",
        "coordinates": [
          7.332150877969875,
          67.74519526215575
        ]
      }
    },
    {
      "type": "Feature",
      "properties": {
        "norad_id": 31420,
        "name": "FENGYUN 1C DEB",
        "group": "fengyun-1c-debris",
        "lat": -82.436533118309,
        "lon": -30.819802029630413,
        "alt_km": 741.2601355384149,
        "timestamp": "2025-12-06T09:34:17.195930+00:00",
        "meta_object_name": "FENGYUN 1C DEB",
        "meta_object_id": "1999-025BTG",
        "meta_epoch": "2025-12-02T05:00:22.989888",
        "meta_mean_motion": 14.4072494,
        "meta_eccentricity": 0.0136749,
        "meta_inclination": 97.5586,
        "meta_ra_of_asc_node": 235.3697,
        "meta_arg_of_pericenter": 0.5233,
        "meta_mean_anomaly": 150.6733,
        "meta_ephemeris_type": 0,
        "meta_classification_type": "U",
        "meta_norad_cat_id": 31420,
        "meta_element_set_no": 999,
        "meta_rev_at_epoch": 64842,
        "meta_bstar": 0.00094796,
        "meta_mean_motion_dot": 3.346e-05,
        "meta_mean_motion_ddot": 0,
        "tle_line1": "1 31420U 99025BTG 25336.20859942  .00003346  00000+0  94796-3 0  9996",
        "tle_line2": "2 31420  97.5586 235.3697 0136749   0.5233 150.6733 14.40724940648424"
      },
      "geometry": {
        "type": "Point",
        "coordinates": [
          -30.819802029630413,
          -82.436533118309
        ]
      }
    },
    {
      "type": "Feature",
      "properties": {
        "norad_id": 31422,
        "name": "FENGYUN 1C DEB",
        "group": "fengyun-1c-debris",
        "lat": 10.501488987820592,
        "lon": 159.16206972895614,
        "alt_km": 883.5638522010922,
        "timestamp": "2025-12-06T09:34:17.195940+00:00",
        "meta_object_name": "FENGYUN 1C DEB",
        "meta_object_id": "1999-025BTJ",
        "meta_epoch": "2025-12-03T18:33:54.370080",
        "meta_mean_motion": 14.09602182,
        "meta_eccentricity": 0.00341914,
        "meta_inclination": 98.7599,
        "meta_ra_of_asc_node": 334.9702,
        "meta_arg_of_pericenter": 326.656,
        "meta_mean_anomaly": 208.1206,
        "meta_ephemeris_type": 0,
        "meta_classification_type": "U",
        "meta_norad_cat_id": 31422,
        "meta_element_set_no": 999,
        "meta_rev_at_epoch": 95535,
        "meta_bstar": 0.00049068577,
        "meta_mean_motion_dot": 8.21e-06,
        "meta_mean_motion_ddot": 0,
        "tle_line1": "1 31422U 99025BTJ 25337.77354595  .00000821  00000+0  49069-3 0  9993",
        "tle_line2": "2 31422  98.7599 334.9702 0034191 326.6560 208.1206 14.09602182955354"
      },
      "geometry": {
        "type": "Point",
        "coordinates": [
          159.16206972895614,
          10.501488987820592
        ]
      }
    },
    {
      "type": "Feature",
      "properties": {
        "norad_id": 31423,
        "name": "FENGYUN 1C DEB",
        "group": "fengyun-1c-debris",
        "lat": -18.71154400462063,
        "lon": -35.68800099993819,
        "alt_km": 836.286901264175,
        "timestamp": "2025-12-06T09:34:17.195951+00:00",
        "meta_object_name": "FENGYUN 1C DEB",
        "meta_object_id": "1999-025BTK",
        "meta_epoch": "2025-12-05T21:50:51.338688",
        "meta_mean_motion": 14.2296426,
        "meta_eccentricity": 0.00357103,
        "meta_inclination": 98.5828,
        "meta_ra_of_asc_node": 320.9038,
        "meta_arg_of_pericenter": 214.1099,
        "meta_mean_anomaly": 145.7785,
        "meta_ephemeris_type": 0,
        "meta_classification_type": "U",
        "meta_norad_cat_id": 31423,
        "meta_element_set_no": 999,
        "meta_rev_at_epoch": 96871,
        "meta_bstar": 0.00024879609,
        "meta_mean_motion_dot": 5.21e-06,
        "meta_mean_motion_ddot": 0,
        "tle_line1": "1 31423U 99025BTK 25339.91031642  .00000521  00000+0  24880-3 0  9998",
        "tle_line2": "2 31423  98.5828 320.9038 0035710 214.1099 145.7785 14.22964260968716"
      },
      "geometry": {
        "type": "Point",
        "coordinates": [
          -35.68800099993819,
          -18.71154400462063
        ]
      }
    }
  ]
}